{
  "type": "FeatureCollection",
  "features": [
    {
      "type": "Feature",
      "properties": {
        "norad_id": 66849,
        "name": "STARLINK-36102",
        "group": "last-30-days",
        "lat": 15.318169726136047,
        "lon": 117.87170283692626,
        "alt_km": 321.9273494994968,
        "timestamp": "2025-12-16T05:49:07.985139+00:00",
        "meta_object_name": "STARLINK-36102",
        "meta_object_id": "2025-281B",
        "meta_epoch": "2025-12-15T22:00:01.999584",
        "meta_mean_motion": 15.83063315,
        "meta_eccentricity": 0.00016434,
        "meta_inclination": 43.0007,
        "meta_ra_of_asc_node": 102.7768,
        "meta_arg_of_pericenter": 278.2463,
        "meta_mean_anomaly": 46.2863,
        "meta_ephemeris_type": 0,
        "meta_classification_type": "U",
        "meta_norad_cat_id": 66849,
        "meta_element_set_no": 999,
        "meta_rev_at_epoch": 191,
        "meta_bstar": -0.0059840748,
        "meta_mean_motion_dot": -0.01180394,
        "meta_mean_motion_ddot": 0,
        "tle_line1": "1 66849U 25281B   25349.91668981 -.01180394  00000+0 -59841-2 0  9998",
        "tle_line2": "2 66849  43.0007 102.7768 0001643 278.2463  46.2863 15.83063315  1911"
      },
      "geometry": {
        "type": "Point",
        "coordinates": [
          117.87170283692626,
          15.318169726136047
        ]
      }
    },
    {
      "type": "Feature",
      "properties": {
        "norad_id": 66850,
        "name": "STARLINK-36105",
        "group": "last-30-days",
        "lat": 17.20541772590277,
        "lon": 120.17905094705849,
        "alt_km": 321.98116771905643,
        "timestamp": "2025-12-16T05:49:07.985148+00:00",
        "meta_object_name": "STARLINK-36105",
        "meta_object_id": "2025-281C",
        "meta_epoch": "2025-12-15T22:00:01.999584",
        "meta_mean_motion": 15.83024228,
        "meta_eccentricity": 0.00018121,
        "meta_inclination": 43.0004,
        "meta_ra_of_asc_node": 102.7694,
        "meta_arg_of_pericenter": 273.1208,
        "meta_mean_anomaly": 54.3743,
        "meta_ephemeris_type": 0,
        "meta_classification_type": "U",
        "meta_norad_cat_id": 66850,
        "meta_element_set_no": 999,
        "meta_rev_at_epoch": 191,
        "meta_bstar": -0.0060488918,
        "meta_mean_motion_dot": -0.01189897,
        "meta_mean_motion_ddot": 0,
        "tle_line1": "1 66850U 25281C   25349.91668981 -.01189897  00000+0 -60489-2 0  9997",
        "tle_line2": "2 66850  43.0004 102.7694 0001812 273.1208  54.3743 15.83024228  1914"
      },
      "geometry": {
        "type": "Point",
        "coordinates": [
          120.17905094705849,
          17.20541772590277
        ]
      }
    },
    {
      "type": "Feature",
      "properties": {
        "norad_id": 66851,
        "name": "STARLINK-36094",
        "group": "last-30-days",
        "lat": 18.751078336239168,
        "lon": 122.12903323194661,
        "alt_km": 321.6241449732761,
        "timestamp": "2025-12-16T05:49:07.985158+00:00",
        "meta_object_name": "STARLINK-36094",
        "meta_object_id": "2025-281D",
        "meta_epoch": "2025-12-15T22:00:01.999584",
        "meta_mean_motion": 15.83012674,
        "meta_eccentricity": 0.00017388,
        "meta_inclination": 43.0004,
        "meta_ra_of_asc_node": 102.7632,
        "meta_arg_of_pericenter": 281.4868,
        "meta_mean_anomaly": 48.4425,
        "meta_ephemeris_type": 0,
        "meta_classification_type": "U",
        "meta_norad_cat_id": 66851,
        "meta_element_set_no": 999,
        "meta_rev_at_epoch": 191,
        "meta_bstar": -0.0060953716,
        "meta_mean_motion_dot": -0.01197405,
        "meta_mean_motion_ddot": 0,
        "tle_line1": "1 66851U 25281D   25349.91668981 -.01197405  00000+0 -60954-2 0  9999",
        "tle_line2": "2 66851  43.0004 102.7632 0001738 281.4868  48.4425 15.83012674  1911"
      },
      "geometry": {
        "type": "Point",
        "coordinates": [
          122.12903323194661,
          18.751078336239168
        ]
      }
    },
    {
      "type": "Feature",
      "properties": {
        "norad_id": 66852,
        "name": "STARLINK-35992",
        "group": "last-30-days",
        "lat": 20.2387284691549,
        "lon": 124.06561457370678,
        "alt_km": 321.4867647429228,
        "timestamp": "2025-12-16T05:49:07.985168+00:00",
        "meta_object_name": "STARLINK-35992",
        "meta_object_id": "2025-281E",
        "meta_epoch": "2025-12-15T22:00:01.999584",
        "meta_mean_motion": 15.83008183,
        "meta_eccentricity": 0.00015448,
        "meta_inclination": 43.0006,
        "meta_ra_of_asc_node": 102.7574,
        "meta_arg_of_pericenter": 279.8345,
        "meta_mean_anomaly": 52.4681,
        "meta_ephemeris_type": 0,
        "meta_classification_type": "U",
        "meta_norad_cat_id": 66852,
        "meta_element_set_no": 999,
        "meta_rev_at_epoch": 191,
        "meta_bstar": -0.0061975303,
        "meta_mean_motion_dot": -0.01214887,
        "meta_mean_motion_ddot": 0,
        "tle_line1": "1 66852U 25281E   25349.91668981 -.01214887  00000+0 -61975-2 0  9998",
        "tle_line2": "2 66852  43.0006 102.7574 0001544 279.8345  52.4681 15.83008183  1914"
      },
      "geometry": {
        "type": "Point",
        "coordinates": [
          124.06561457370678,
          20.2387284691549
        ]
      }
    },
    {
      "type": "Feature",
      "properties": {
        "norad_id": 66853,
        "name": "STARLINK-35986",
        "group": "last-30-days",
        "lat": 22.129673311631368,
        "lon": 126.62526481239169,
        "alt_km": 321.51663124896004,
        "timestamp": "2025-12-16T05:49:07.985180+00:00",
        "meta_object_name": "STARLINK-35986",
        "meta_object_id": "2025-281F",
        "meta_epoch": "2025-12-15T22:00:01.999584",
        "meta_mean_motion": 15.82977335,
        "meta_eccentricity": 0.0001607,
        "meta_inclination": 43.0006,
        "meta_ra_of_asc_node": 102.7495,
        "meta_arg_of_pericenter": 277.948,
        "meta_mean_anomaly": 57.4662,
        "meta_ephemeris_type": 0,
        "meta_classification_type": "U",
        "meta_norad_cat_id": 66853,
        "meta_element_set_no": 999,
        "meta_rev_at_epoch": 191,
        "meta_bstar": -0.0065437679,
        "meta_mean_motion_dot": -0.01273147,
        "meta_mean_motion_ddot": 0,
        "tle_line1": "1 66853U 25281F   25349.91668981 -.01273147  00000+0 -65438-2 0  9991",
        "tle_line2": "2 66853  43.0006 102.7495 0001607 277.9480  57.4662 15.82977335  1913"
      },
      "geometry": {
        "type": "Point",
        "coordinates": [
          126.62526481239169,
          22.129673311631368
        ]
      }
    },
    {
      "type": "Feature",
      "properties": {
        "norad_id": 66854,
        "name": "STARLINK-36087",
        "group": "last-30-days",
        "lat": 23.906317792611407,
        "lon": 129.1472393596949,
        "alt_km": 321.6701098362255,
        "timestamp": "2025-12-16T05:49:07.985193+00:00",
        "meta_object_name": "STARLINK-36087",
        "meta_object_id": "2025-281G",
        "meta_epoch": "2025-12-15T22:00:01.999584",
        "meta_mean_motion": 15.82934052,
        "meta_eccentricity": 0.00017,
        "meta_inclination": 43.0005,
        "meta_ra_of_asc_node": 102.7415,
        "meta_arg_of_pericenter": 272.2486,
        "meta_mean_anomaly": 66.1658,
        "meta_ephemeris_type": 0,
        "meta_classification_type": "U",
        "meta_norad_cat_id": 66854,
        "meta_element_set_no": 999,
        "meta_rev_at_epoch": 191,
        "meta_bstar": -0.0068368181,
        "meta_mean_motion_dot": -0.01320803,
        "meta_mean_motion_ddot": 0,
        "tle_line1": "1 66854U 25281G   25349.91668981 -.01320803  00000+0 -68368-2 0  9999",
        "tle_line2": "2 66854  43.0005 102.7415 0001700 272.2486  66.1658 15.82934052  1914"
      },
      "geometry": {
        "type": "Point",
        "coordinates": [
          129.1472393596949,
          23.906317792611407
        ]
      }
    },
    {
      "type": "Feature",
      "properties": {
        "norad_id": 66855,
        "name": "STARLINK-36090",
        "group": "last-30-days",
        "lat": 25.39893150329702,
        "lon": 131.36982431967243,
        "alt_km": 321.6048516730925,
        "timestamp": "2025-12-16T05:49:07.985203+00:00",
        "meta_object_name": "STARLINK-36090",
        "meta_object_id": "2025-281H",
        "meta_epoch": "2025-12-15T22:00:01.999584",
        "meta_mean_motion": 15.82896385,
        "meta_eccentricity": 0.00017895,
        "meta_inclination": 43.0006,
        "meta_ra_of_asc_node": 102.7353,
        "meta_arg_of_pericenter": 274.0682,
        "meta_mean_anomaly": 66.9089,
        "meta_ephemeris_type": 0,
        "meta_classification_type": "U",
        "meta_norad_cat_id": 66855,
        "meta_element_set_no": 999,
        "meta_rev_at_epoch": 179,
        "meta_bstar": -0.0069177053,
        "meta_mean_motion_dot": -0.0133244,
        "meta_mean_motion_ddot": 0,
        "tle_line1": "1 66855U 25281H   25349.91668981 -.01332440  00000+0 -69177-2 0  9999",
        "tle_line2": "2 66855  43.0006 102.7353 0001789 274.0682  66.9089 15.82896385  1790"
      },
      "geometry": {
        "type": "Point",
        "coordinates": [
          131.36982431967243,
          25.39893150329702
        ]
      }
    }
  ]
}